[{"OBJECT_NAME":"SUOMI-100","OBJECT_ID":"2018-099AY","EPOCH":"2026-03-09T16:23:06.300384","MEAN_MOTION":15.25995383,"ECCENTRICITY":0.00089691,"INCLINATION":97.4315,"RA_OF_ASC_NODE":129.5602,"ARG_OF_PERICENTER":269.9465,"MEAN_ANOMALY":90.0745,"EPHEMERIS_TYPE":0,"CLASSIFICATION_TYPE":"U","NORAD_CAT_ID":43804,"ELEMENT_SET_NO":999,"REV_AT_EPOCH":39823,"BSTAR":0.00054773118,"MEAN_MOTION_DOT":0.00014037,"MEAN_MOTION_DDOT":0},{"OBJECT_NAME":"STARLINK-31327","OBJECT_ID":"2024-044J","EPOCH":"2026-03-09T02:25:59.859264","MEAN_MOTION":15.27571368,"ECCENTRICITY":1.424e-5,"INCLINATION":42.9989,"RA_OF_ASC_NODE":110.5181,"ARG_OF_PERICENTER":312.1995,"MEAN_ANOMALY":47.8844,"EPHEMERIS_TYPE":0,"CLASSIFICATION_TYPE":"U","NORAD_CAT_ID":59160,"ELEMENT_SET_NO":999,"REV_AT_EPOCH":11350,"BSTAR":-4.5536342e-5,"MEAN_MOTION_DOT":-1.514e-5,"MEAN_MOTION_DDOT":0}]
